OBJECT_NAME,OBJECT_ID,EPOCH,MEAN_MOTION,ECCENTRICITY,INCLINATION,RA_OF_ASC_NODE,ARG_OF_PERICENTER,MEAN_ANOMALY,EPHEMERIS_TYPE,CLASSIFICATION_TYPE,NORAD_CAT_ID,ELEMENT_SET_NO,REV_AT_EPOCH,BSTAR,MEAN_MOTION_DOT,MEAN_MOTION_DDOT
LEMUR-2-ROUNDTRIPPER,2025-009DG,2026-06-28T22:29:37.098816,15.03975924,.00053052,97.7245,262.6006,103.4121,256.7696,0,U,62711,999,7939,.56063733E-3,.7685E-4,0
LEMUR-2-MYNAMEISJEFF,2025-009DH,2026-06-28T20:51:30.583008,15.03969717,.00038971,97.7288,262.9204,130.8947,229.2617,0,U,62712,999,7938,.53027103E-3,.7263E-4,0
LEMUR-2-LEIA-PHILIP,2025-052AN,2026-06-28T23:09:30.171456,14.97342925,.00039822,97.6816,71.7169,169.2550,190.8758,0,U,63246,999,7043,.12764707E-3,.1424E-4,0
LEMUR-2-LIA-MARTIN,2025-052AQ,2026-06-28T16:46:12.264384,14.97888620,.0004114,97.6873,71.9473,134.4362,225.7198,0,U,63248,999,7040,.36918027E-3,.429E-4,0
LEMUR-2-DELOITTE-1,2025-052BB,2026-06-28T22:39:13.054176,14.97682618,.0002876,97.6916,72.5198,73.0832,287.0705,0,U,63259,999,7045,.23867542E-3,.2737E-4,0
LEMUR-2-EMERSONROSE,2025-052BD,2026-06-28T23:22:58.164384,14.99161995,.00022434,97.6876,73.1288,78.7268,281.4207,0,U,63261,999,7050,.32091815E-3,.3846E-4,0
LEMUR-2-MARACHE-FRAN,2025-052BE,2026-06-28T16:11:33.962496,15.00198613,.00044824,97.6915,73.1755,333.9339,26.1658,0,U,63262,999,7048,.32565658E-3,.4012E-4,0
LEMUR-2-THEFALCONER,2025-052BG,2026-06-28T23:19:43.826592,14.97459052,.0001354,97.6846,72.1538,19.6997,340.4278,0,U,63264,999,7045,.30222325E-3,.3461E-4,0
LEMUR-2-UNTITLED-SC,2025-061A,2026-06-28T22:09:07.678656,15.13551158,.0017484,97.5637,155.1997,220.2427,139.7510,0,U,63351,999,6936,.17000929E-3,.2991E-4,0
LEMUR-2-ESPERANZA,2025-061B,2026-06-28T21:35:10.859136,15.13641436,.00171336,97.5641,155.2723,219.6340,140.3640,0,U,63352,999,6936,.17775824E-3,.3138E-4,0
LEMUR-2-KREMPEL-BRO2,2025-061C,2026-06-28T22:09:09.279648,15.14081535,.00182158,97.5691,155.8441,211.5620,148.4521,0,U,63353,999,6938,.17226274E-3,.3079E-4,0
LEMUR-2-THERMORAPTOR,2025-061D,2026-06-28T23:17:36.104064,15.14161984,.00179896,97.5694,155.9693,210.4483,149.5705,0,U,63354,999,6939,.18005956E-3,.3228E-4,0
LEMUR-2-NEUROSPICY,2025-061E,2026-06-28T19:25:12.328608,15.14278199,.00157539,97.5623,155.4260,214.1931,145.8287,0,U,63355,999,6937,.21569363E-3,.389E-4,0
LEMUR-2-TILLINFINITY,2025-061F,2026-06-28T21:44:38.898528,15.14862800,.00173008,97.5608,155.8211,201.5187,158.5320,0,U,63356,999,6941,.17132622E-3,.3129E-4,0
LEMUR-2-KREMPEL-BRO1,2025-061G,2026-06-28T21:08:36.748896,15.14669022,.00179329,97.5609,155.7089,203.2624,156.7798,0,U,63357,999,6940,.2102715E-3,.3836E-4,0
LEMUR-2-LANGER2SPACE,2025-061H,2026-06-28T21:50:08.586240,15.14364590,.00156634,97.5613,155.5468,211.8043,148.2245,0,U,63358,999,6939,.16550619E-3,.2976E-4,0
LEMUR-2-BALTO,2025-052BH,2026-06-28T15:49:33.379104,15.00209806,.00064481,97.6927,73.1358,26.9817,333.1740,0,U,63395,999,7048,.42760941E-3,.529E-4,0
LEMUR-2-KRISH,2025-135AK,2026-06-28T20:15:52.265952,14.96305762,.00011092,97.7750,294.6406,106.3007,253.8336,0,U,64561,999,5566,.40549887E-3,.4526E-4,0
LEMUR-2-HUBBLE-4,2025-135AP,2026-06-28T20:41:54.072960,14.93647729,.00014936,97.7713,293.6275,212.2301,147.8828,0,U,64565,999,5561,.18286543E-3,.1875E-4,0
LEMUR-2-SEJONG-2,2025-135BL,2026-06-28T22:29:53.233152,14.96792174,.00027018,97.7705,294.8776,292.3111,67.7823,0,U,64586,999,5570,.43782483E-3,.4954E-4,0
LEMUR-2-HUBBLE-5,2025-135BT,2026-06-28T06:35:01.032864,14.94168899,.00042294,97.7727,293.6985,311.1004,48.9850,0,U,64840,999,5556,.17335753E-3,.1799E-4,0
LEMUR-2-KARENDARRELL,2025-135BU,2026-06-28T20:34:36.911424,15.00280056,.00107492,97.7691,296.0459,158.6524,201.5150,0,U,64841,999,5576,.62570598E-3,.7791E-4,0
LEMUR-2-LUCILLE-ROSE,2025-135BV,2026-06-28T19:56:23.299008,15.00294962,.00127856,97.7742,296.0501,240.4394,119.5555,0,U,65403,999,5038,.51991221E-3,.6467E-4,0
LEMUR-2-AFFIE-WAUWIE,2025-248C,2026-06-28T08:54:02.417184,15.27614194,.0007838,45.3941,54.3798,160.1118,200.0078,0,U,66295,999,3630,.82305476E-3,.22418E-3,0
LEMUR-2-DEANANDMAEVE,2025-276N,2026-06-28T16:55:15.898368,15.19869078,.00046363,97.4215,252.9897,331.0855,29.0122,0,U,66678,999,3216,.27612052E-3,.5858E-4,0
LEMUR-2-STAS-GORBUK,2025-276W,2026-06-28T17:20:05.402400,15.19497795,.00039111,97.4249,253.0607,331.3491,28.7528,0,U,66686,999,3216,.23409415E-3,.4902E-4,0
LEMUR-2-TEODOR,2025-276DG,2026-06-28T22:57:24.960096,15.21174006,.00023614,97.4154,253.5423,104.8170,255.3328,0,U,66768,999,3223,.26139553E-3,.5758E-4,0
LEMUR-2-LAILA,2025-276DQ,2026-06-28T22:17:22.860384,15.21397721,.00027586,97.4179,253.6432,119.4377,240.7135,0,U,66776,999,3223,.24054524E-3,.5328E-4,0
LEMUR-2-CELIJO-SB-PK,2025-276DW,2026-06-28T17:02:44.688480,15.00110621,.00080246,97.5229,250.1088,104.8745,255.3368,0,U,66781,999,2435,.46348422E-3,.5728E-4,0
