LEMUR-2-ROUNDTRIPPER    
1 62711U 25009DG  26179.93723494  .00007685  00000+0  56064-3 0  9998
2 62711  97.7245 262.6006 0005305 103.4121 256.7696 15.03975924 79394
LEMUR-2-MYNAMEISJEFF    
1 62712U 25009DH  26179.86910397  .00007263  00000+0  53027-3 0  9999
2 62712  97.7288 262.9204 0003897 130.8947 229.2617 15.03969717 79389
LEMUR-2-LEIA-PHILIP     
1 63246U 25052AN  26179.96493254  .00001424  00000+0  12765-3 0  9996
2 63246  97.6816  71.7169 0003982 169.2550 190.8758 14.97342925 70439
LEMUR-2-LIA-MARTIN      
1 63248U 25052AQ  26179.69875306  .00004290  00000+0  36918-3 0  9990
2 63248  97.6873  71.9473 0004114 134.4362 225.7198 14.97888620 70407
LEMUR-2-DELOITTE-1      
1 63259U 25052BB  26179.94390109  .00002737  00000+0  23868-3 0  9997
2 63259  97.6916  72.5198 0002876  73.0832 287.0705 14.97682618 70450
LEMUR-2-EMERSONROSE     
1 63261U 25052BD  26179.97428431  .00003846  00000+0  32092-3 0  9994
2 63261  97.6876  73.1288 0002243  78.7268 281.4207 14.99161995 70501
LEMUR-2-MARACHE-FRAN    
1 63262U 25052BE  26179.67469864  .00004012  00000+0  32566-3 0  9999
2 63262  97.6915  73.1755 0004482 333.9339  26.1658 15.00198613 70488
LEMUR-2-THEFALCONER     
1 63264U 25052BG  26179.97203503  .00003461  00000+0  30222-3 0  9994
2 63264  97.6846  72.1538 0001354  19.6997 340.4278 14.97459052 70453
LEMUR-2-UNTITLED-SC     
1 63351U 25061A   26179.92300554  .00002991  00000+0  17001-3 0  9997
2 63351  97.5637 155.1997 0017484 220.2427 139.7510 15.13551158 69362
LEMUR-2-ESPERANZA       
1 63352U 25061B   26179.89943124  .00003138  00000+0  17776-3 0  9993
2 63352  97.5641 155.2723 0017133 219.6340 140.3640 15.13641436 69364
LEMUR-2-KREMPEL-BRO2    
1 63353U 25061C   26179.92302407  .00003079  00000+0  17226-3 0  9995
2 63353  97.5691 155.8441 0018215 211.5620 148.4521 15.14081535 69385
LEMUR-2-THERMORAPTOR    
1 63354U 25061D   26179.97055676  .00003228  00000+0  18006-3 0  9997
2 63354  97.5694 155.9693 0017989 210.4483 149.5705 15.14161984 69395
LEMUR-2-NEUROSPICY      
1 63355U 25061E   26179.80917047  .00003890  00000+0  21569-3 0  9992
2 63355  97.5623 155.4260 0015753 214.1931 145.8287 15.14278199 69378
LEMUR-2-TILLINFINITY    
1 63356U 25061F   26179.90600577  .00003129  00000+0  17133-3 0  9998
2 63356  97.5608 155.8211 0017300 201.5187 158.5320 15.14862800 69417
LEMUR-2-KREMPEL-BRO1    
1 63357U 25061G   26179.88098089  .00003836  00000+0  21027-3 0  9997
2 63357  97.5609 155.7089 0017932 203.2624 156.7798 15.14669022 69406
LEMUR-2-LANGER2SPACE    
1 63358U 25061H   26179.90982160  .00002976  00000+0  16551-3 0  9993
2 63358  97.5613 155.5468 0015663 211.8043 148.2245 15.14364590 69393
LEMUR-2-BALTO           
1 63395U 25052BH  26179.65941411  .00005290  00000+0  42761-3 0  9994
2 63395  97.6927  73.1358 0006448  26.9817 333.1740 15.00209806 70481
LEMUR-2-KRISH           
1 64561U 25135AK  26179.84435493  .00004526  00000+0  40550-3 0  9996
2 64561  97.7750 294.6406 0001109 106.3007 253.8336 14.96305762 55663
LEMUR-2-HUBBLE-4        
1 64565U 25135AP  26179.86243140  .00001875  00000+0  18287-3 0  9994
2 64565  97.7713 293.6275 0001493 212.2301 147.8828 14.93647729 55611
LEMUR-2-SEJONG-2        
1 64586U 25135BL  26179.93742168  .00004954  00000+0  43782-3 0  9998
2 64586  97.7705 294.8776 0002701 292.3111  67.7823 14.96792174 55708
LEMUR-2-HUBBLE-5        
1 64840U 25135BT  26179.27431751  .00001799  00000+0  17336-3 0  9991
2 64840  97.7727 293.6985 0004229 311.1004  48.9850 14.94168899 55566
LEMUR-2-KARENDARRELL    
1 64841U 25135BU  26179.85737166  .00007791  00000+0  62571-3 0  9994
2 64841  97.7691 296.0459 0010749 158.6524 201.5150 15.00280056 55765
LEMUR-2-LUCILLE-ROSE    
1 65403U 25135BV  26179.83082522  .00006467  00000+0  51991-3 0  9999
2 65403  97.7742 296.0501 0012785 240.4394 119.5555 15.00294962 50383
LEMUR-2-AFFIE-WAUWIE    
1 66295U 25248C   26179.37086131  .00022418  00000+0  82305-3 0  9990
2 66295  45.3941  54.3798 0007838 160.1118 200.0078 15.27614194 36305
LEMUR-2-DEANANDMAEVE    
1 66678U 25276N   26179.70504512  .00005858  00000+0  27612-3 0  9990
2 66678  97.4215 252.9897 0004636 331.0855  29.0122 15.19869078 32161
LEMUR-2-STAS-GORBUK     
1 66686U 25276W   26179.72228475  .00004902  00000+0  23409-3 0  9991
2 66686  97.4249 253.0607 0003911 331.3491  28.7528 15.19497795 32161
LEMUR-2-TEODOR          
1 66768U 25276DG  26179.95653889  .00005758  00000+0  26140-3 0  9993
2 66768  97.4154 253.5423 0002361 104.8170 255.3328 15.21174006 32237
LEMUR-2-LAILA           
1 66776U 25276DQ  26179.92873681  .00005328  00000+0  24055-3 0  9999
2 66776  97.4179 253.6432 0002758 119.4377 240.7135 15.21397721 32230
LEMUR-2-CELIJO-SB-PK    
1 66781U 25276DW  26179.71023945  .00005728  00000+0  46348-3 0  9995
2 66781  97.5229 250.1088 0008024 104.8745 255.3368 15.00110621 24354
